CZ-2C R/B               
1 54039U 22132E   26001.09970868  .00046379  00000+0  65686-3 0  9999
2 54039  97.2939   2.6861 0019468 349.4525  10.6319 15.56131277179842
GSLV R/B                
1 54149U 22138AN  25365.98400360  .00005125  00000+0  44941-3 0  9997
2 54149  87.3818 189.0278 0023393  42.3423 317.9608 14.96244827173803
XRISM                   
1 57800U 23137A   26001.26278999  .00009325  00000+0  54493-3 0  9993
2 57800  31.0036 359.4782 0007591  83.1745 276.9757 15.10582373127584
ACS3                    
1 59588U 24077B   26001.31820639  .00045351  00000+0  38093-1 0  9997
2 59588  97.2535 317.5490 0070686 289.3247  70.0281 13.86566246 84859
SZ-21 MODULE            
1 66515U 25246C   26001.02753310  .00038909  00000+0  40785-3 0  9997
2 66515  41.4762 258.2958 0002791  10.0529 350.0366 15.63632096  7465
