CCSDS_OMM_VERS = 2.0
CREATION_DATE  = 
ORIGINATOR     = 

OBJECT_NAME    = CZ-2C R/B
OBJECT_ID      = 2022-132E
CENTER_NAME    = EARTH
REF_FRAME      = TEME
TIME_SYSTEM    = UTC
MEAN_ELEMENT_THEORY = SGP/SGP4

EPOCH          = 2026-01-01T02:23:34.829952
MEAN_MOTION    = 15.56131277
ECCENTRICITY   = .0019468
INCLINATION    = 97.2939
RA_OF_ASC_NODE = 2.6861
ARG_OF_PERICENTER = 349.4525
MEAN_ANOMALY   = 10.6319

EPHEMERIS_TYPE = 0
CLASSIFICATION_TYPE = U
NORAD_CAT_ID   = 54039
ELEMENT_SET_NO = 999
REV_AT_EPOCH   = 17984
BSTAR          = .65685785E-3
MEAN_MOTION_DOT = .46379E-3
MEAN_MOTION_DDOT = 0

CCSDS_OMM_VERS = 2.0
CREATION_DATE  = 
ORIGINATOR     = 

OBJECT_NAME    = GSLV R/B
OBJECT_ID      = 2022-138AN
CENTER_NAME    = EARTH
REF_FRAME      = TEME
TIME_SYSTEM    = UTC
MEAN_ELEMENT_THEORY = SGP/SGP4

EPOCH          = 2025-12-31T23:36:57.911040
MEAN_MOTION    = 14.96244827
ECCENTRICITY   = .00233937
INCLINATION    = 87.3818
RA_OF_ASC_NODE = 189.0278
ARG_OF_PERICENTER = 42.3423
MEAN_ANOMALY   = 317.9608

EPHEMERIS_TYPE = 0
CLASSIFICATION_TYPE = U
NORAD_CAT_ID   = 54149
ELEMENT_SET_NO = 999
REV_AT_EPOCH   = 17380
BSTAR          = .44940682E-3
MEAN_MOTION_DOT = .5125E-4
MEAN_MOTION_DDOT = 0

CCSDS_OMM_VERS = 2.0
CREATION_DATE  = 
ORIGINATOR     = 

OBJECT_NAME    = XRISM
OBJECT_ID      = 2023-137A
CENTER_NAME    = EARTH
REF_FRAME      = TEME
TIME_SYSTEM    = UTC
MEAN_ELEMENT_THEORY = SGP/SGP4

EPOCH          = 2026-01-01T06:18:25.055136
MEAN_MOTION    = 15.10582373
ECCENTRICITY   = .00075918
INCLINATION    = 31.0036
RA_OF_ASC_NODE = 359.4782
ARG_OF_PERICENTER = 83.1745
MEAN_ANOMALY   = 276.9757

EPHEMERIS_TYPE = 0
CLASSIFICATION_TYPE = U
NORAD_CAT_ID   = 57800
ELEMENT_SET_NO = 999
REV_AT_EPOCH   = 12758
BSTAR          = .5449306E-3
MEAN_MOTION_DOT = .9325E-4
MEAN_MOTION_DDOT = 0

CCSDS_OMM_VERS = 2.0
CREATION_DATE  = 
ORIGINATOR     = 

OBJECT_NAME    = ACS3
OBJECT_ID      = 2024-077B
CENTER_NAME    = EARTH
REF_FRAME      = TEME
TIME_SYSTEM    = UTC
MEAN_ELEMENT_THEORY = SGP/SGP4

EPOCH          = 2026-01-01T07:38:13.032096
MEAN_MOTION    = 13.86566246
ECCENTRICITY   = .00706868
INCLINATION    = 97.2535
RA_OF_ASC_NODE = 317.5490
ARG_OF_PERICENTER = 289.3247
MEAN_ANOMALY   = 70.0281

EPHEMERIS_TYPE = 0
CLASSIFICATION_TYPE = U
NORAD_CAT_ID   = 59588
ELEMENT_SET_NO = 999
REV_AT_EPOCH   = 8485
BSTAR          = .38092901E-1
MEAN_MOTION_DOT = .45351E-3
MEAN_MOTION_DDOT = 0

CCSDS_OMM_VERS = 2.0
CREATION_DATE  = 
ORIGINATOR     = 

OBJECT_NAME    = SZ-21 MODULE
OBJECT_ID      = 2025-246C
CENTER_NAME    = EARTH
REF_FRAME      = TEME
TIME_SYSTEM    = UTC
MEAN_ELEMENT_THEORY = SGP/SGP4

EPOCH          = 2026-01-01T00:39:38.859840
MEAN_MOTION    = 15.63632096
ECCENTRICITY   = .00027915
INCLINATION    = 41.4762
RA_OF_ASC_NODE = 258.2958
ARG_OF_PERICENTER = 10.0529
MEAN_ANOMALY   = 350.0366

EPHEMERIS_TYPE = 0
CLASSIFICATION_TYPE = U
NORAD_CAT_ID   = 66515
ELEMENT_SET_NO = 999
REV_AT_EPOCH   = 746
BSTAR          = .40784758E-3
MEAN_MOTION_DOT = .38909E-3
MEAN_MOTION_DDOT = 0

